0 DELTA 1 DEB
1 14909U 78026GJ  19154.84935325  .00000276  00000-0  21851-3 0  9990
2 14909  98.7789 279.8647 0160879 125.4343 358.6788 13.93022556887520
0 DELTA 1 DEB
1 14910U 78026GK  19153.91352059 +.00000171 +00000-0 +10328-3 0  9997
2 14910 099.0554 038.2946 0016488 309.9941 107.0323 14.19348042826270
0 DELTA 1 DEB
1 14910U 78026GK  19153.91352059  .00000171  00000-0  10328-3 0  9997
2 14910  99.0554  38.2946 0016488 309.9941 107.0323 14.19348042826416
0 DELTA 1 DEB
1 14913U 78026GN  19154.90418022  .00000152  00000-0  80012-4 0  9990
2 14913  98.7533 138.0088 0099401  76.4889 350.9905 14.24701292880434
0 DELTA 1 DEB
1 14913U 78026GN  19153.91824942 +.00000161 +00000-0 +83680-4 0  9996
2 14913 098.7532 137.0258 0099400 079.3065 334.2680 14.24700970880143
0 DELTA 1 DEB
1 14914U 78026GP  19153.90468338 +.00000149 +00000-0 +65989-4 0  9997
2 14914 098.5933 143.6296 0046777 002.0518 056.6616 14.35872191948479
0 DELTA 1 DEB
1 14914U 78026GP  19154.54520799  .00000148  00000-0  65637-4 0  9997
2 14914  98.5933 144.2681 0046719   0.1646 127.6107 14.35872469948787
0 COSMOS 1275 DEB
1 14925U 81053JX  19153.89748603 +.00000411 +00000-0 +19772-3 0  9997
2 14925 082.8639 210.5896 0022954 243.0790 116.8044 14.16551789915115
0 COSMOS 1275 DEB
1 14925U 81053JX  19154.18002754  .00000405  00000-0  19459-3 0  9995
2 14925  82.8639 210.3628 0022970 242.1928 117.6923 14.16552006915474
0 SL-3 DEB
1 14928U 83075F   19154.08968624  .00000168  00000-0  13728-4 0  9990
2 14928  97.9480 340.6856 0030814 296.8562 181.4937 15.12680780928582
0 SL-3 DEB
1 14928U 83075F   19153.48309126 +.00000181 +00000-0 +14435-4 0  9990
2 14928 097.9480 340.0540 0030842 299.0105 118.1034 15.12680590928208
0 GORIZONT 9
1 14940U 84041A   19153.78591212 +.00000002 +00000-0 +00000-0 0  9991
2 14940 013.2976 334.3145 0002376 247.3424 014.7925 01.00313588096153
0 SL-12 R/B(2)
1 14948U 84022F   19153.40654986 -.00000351 +00000-0 +00000-0 0  9993
2 14948 014.4440 330.8024 0023612 071.9680 115.6469 00.99871403135596
0 SL-3 DEB
1 14950U 77117C   19153.92510321 -.00000098 +00000-0 -63723-4 0  9998
2 14950 081.2495 304.3164 0038082 011.7373 107.6330 14.08700808130251
0 SL-12 R/B(2)
1 14951U 84031F   19153.40257642 -.00000318 +00000-0 +00000-0 0  9998
2 14951 013.6440 334.5937 0010903 181.4848 008.4522 00.99426958094232
0 SL-8 R/B
1 14966U 84043B   19153.91749367 -.00000009 +00000-0 -25889-4 0  9997
2 14966 082.9725 285.1450 0015301 223.2108 252.5687 13.74504807758031
0 SL-8 R/B
1 14966U 84043B   19154.86423096 -.00000011  00000-0 -27168-4 0  9995
2 14966  82.9725 284.4472 0015349 220.4295 257.3708 13.74504759758432
0 COSMOS 1553
1 14973U 84046A   19154.64951472  .00000013  00000-0 -18316-5 0  9993
2 14973  82.9354 359.5631 0030986 247.3732 174.0558 13.75334383758621
0 COSMOS 1553
1 14973U 84046A   19153.93263147 +.00000014 +00000-0 -53383-6 0  9994
2 14973 082.9354 000.0951 0030972 249.4409 224.5538 13.75334385758253
0 SL-8 R/B
1 14974U 84046B   19153.91372484 -.00000048 +00000-0 -63650-4 0  9992
2 14974 082.9334 329.7920 0045677 156.4736 310.4621 13.76924528760455
0 COSMOS 1554 (GLONASS)
1 14977U 84047A   19153.58020683 -.00000040 +00000-0 +00000-0 0  9997
2 14977 066.2194 052.0057 0014879 230.9561 237.5285 02.13101437049087
0 COSMOS 1554 (GLONASS)
1 14977U 84047A   19154.29863090 -.00000037  00000-0  00000+0 0  9998
2 14977  66.2198  51.9820 0014871 230.8804  68.7486  2.13101400244745
0 COSMOS 1555 (GLONASS)
1 14978U 84047B   19153.75841226 -.00000039 +00000-0 +00000-0 0  9999
2 14978 066.2183 052.4626 0011897 187.3469 044.5021 02.13101297244705
0 COSMOS 1555 (GLONASS)
1 14978U 84047B   19153.75841226 -.00000039  00000-0  00000+0 0  9998
2 14978  66.2183  52.4626 0011897 187.3469  44.5021  2.13101297244727
0 COSMOS 1556 (GLONASS)
1 14979U 84047C   19153.82194208 -.00000038 +00000-0 +00000-0 0  9998
2 14979 066.2142 053.3874 0009036 202.2691 107.0373 02.12913190272340
0 COSMOS 1556 (GLONASS)
1 14979U 84047C   19154.70010830 -.00000035  00000-0  00000+0 0  9990
2 14979  66.2146  53.3586 0009036 202.2465  60.1574  2.12913179272409
0 SL-12 R/B(2)
1 14984U 84047F   19154.16658586 -.00000037  00000-0  00000+0 0  9994
2 14984  66.2265  52.2998 0005566 260.6012 282.2777  2.13163137272800
0 COSMOS 1559
1 14998U 84052A   19153.95163979 -.00000022 +00000-0 -45337-4 0  9990
2 14998 074.0121 325.2759 0025717 336.8720 136.5439 12.43939812589793
0 COSMOS 1560
1 14999U 84052B   19153.73101590 -.00000017 +00000-0 -94865-5 0  9993
2 14999 074.0126 257.9977 0014126 252.6391 217.2882 12.46075685592518
0 COSMOS 1560
1 14999U 84052B   19154.77647045 -.00000008  00000-0  53422-4 0  9990
2 14999  74.0126 256.6172 0014125 251.1481 226.9965 12.46075677592873
0 COSMOS 1561
1 15000U 84052C   19153.56535087 +.00000016 +00000-0 +21149-3 0  9990
2 15000 074.0107 199.0467 0014709 141.0791 329.2941 12.47949254594912
0 COSMOS 1561
1 15000U 84052C   19154.53647650  .00000010  00000-0  17641-3 0  9994
2 15000  74.0106 197.7598 0014696 139.6051  12.2119 12.47949267595234
0 COSMOS 1562
1 15001U 84052D   19153.41686144 -.00000018 +00000-0 -13389-4 0  9998
2 15001 074.0098 137.0308 0014795 020.7208 091.6503 12.49922508597438
0 COSMOS 1563
1 15002U 84052E   19153.87805410 -.00000024 +00000-0 -53559-4 0  9998
2 15002 074.0137 076.6077 0024845 303.0928 125.4958 12.51795636332437
0 COSMOS 1565
1 15004U 84052G   19153.95217833 -.00000017 +00000-0 -75716-5 0  9997
2 15004 074.0119 321.0205 0043493 164.3987 312.8450 12.55417173604456
0 COSMOS 1565
1 15004U 84052G   19154.90670976 -.00000023  00000-0 -42685-4 0  9999
2 15004  74.0119 319.7377 0043481 162.9536 306.8492 12.55417158604813
0 COSMOS 1566
1 15005U 84052H   19153.87948163 -.00000020 +00000-0 -24288-4 0  9997
2 15005 074.0120 259.6146 0050976 083.4405 050.7932 12.57336519606911
0 COSMOS 1566
1 15005U 84052H   19154.42118078 -.00000020  00000-0 -22567-4 0  9991
2 15005  74.0120 258.8841 0050975  82.6078 342.7548 12.57336519607200
0 COSMOS 1570
1 15031U 84056A   19154.51779851 -.00000020  00000-0  21703-5 0  9997
2 15031  74.0675 290.5674 0013787 281.2607 146.1124 14.31761871826729
0 COSMOS 1570
1 15031U 84056A   19153.82755539 -.00000015 +00000-0 +39487-5 0  9999
2 15031 074.0675 291.8234 0013783 282.5801 188.4718 14.31761868826343
0 SL-8 R/B
1 15032U 84056B   19154.66434631 -.00000000  00000-0  90355-5 0  9995
2 15032  74.0700 206.3718 0017494 191.7784 168.2962 14.34780872829670
0 SL-8 DEB
1 15033U 84056C   19153.84066428 +.00000171 +00000-0 +58721-4 0  9998
2 15033 074.0693 171.5359 0014282 323.9400 097.0365 14.43163819830924
0 NAVSTAR 9 (USA 1)
1 15039U 84059A   19153.93296331  .00000081  00000-0  00000+0 0  9997
2 15039  62.2839 139.1953 0197367  37.2672 323.4907  1.92303319248688
0 SL-12 R/B(AUX MOTOR)
1 15054U 84047H   19154.14636040  .00000865  00000-0  15575-3 0  9997
2 15054  51.9515 215.6202 4932439 355.4512   1.4277  5.72063133542046
0 SL-8 R/B
1 15056U 84062B   19153.94965226 -.00000056 +00000-0 -73192-4 0  9998
2 15056 082.9543 147.5008 0023645 249.3838 168.0853 13.76295415754620
0 RADUGA 15
1 15057U 84063A   19153.46456361 -.00000240 +00000-0 +00000-0 0  9990
2 15057 013.3172 334.0488 0002583 072.5254 099.0203 01.00376103115315
0 SL-8 R/B
1 15078U 84067B   19154.86733454  .00000033  00000-0  18118-4 0  9995
2 15078  82.9549 280.6448 0023918 241.8367 118.0374 13.77186269755344
0 COSMOS 1579
1 15085U 84069A   19154.75810182 -.00000088  00000-0  42347-6 0  9991
2 15085  65.0494 271.4196 0053362 209.5483 150.2560 13.86056098769769
0 COSMOS 1579
1 15085U 84069A   19153.67581917 -.00000093 +00000-0 -39861-5 0  9995
2 15085 065.0511 274.2264 0053462 209.8664 149.9345 13.86056144769411
0 COSMOS 1581
1 15095U 84071A   19154.19489579 -.00000336  00000-0  00000+0 0  9994
2 15095  66.2223 246.4347 6171872  50.2296 349.6410  1.99693017229273
0 SL-6 R/B(2)
1 15098U 84071D   19153.54155590 -.00000314 +00000-0 +00000-0 0  9995
2 15098 068.9108 153.6599 6399190 018.5442 356.8090 02.04066641260194
0 METEOR 2-11
1 15099U 84072A   19153.89651412 +.00000022 +00000-0 +58429-5 0  9997
2 15099 082.5298 289.3421 0014430 113.8594 246.4080 13.85051748764386
0 METEOR 2-11
1 15099U 84072A   19154.83563702  .00000028  00000-0  11534-4 0  9997
2 15099  82.5299 288.5933 0014451 111.4889 248.7814 13.85051795764506
0 SL-14 R/B
1 15100U 84072B   19154.82888752  .00000012  00000-0 -24029-5 0  9992
2 15100  82.5289 292.2802 0012899 130.8037 229.4244 13.84438127764060
0 SL-14 R/B
1 15100U 84072B   19153.88934829 -.00000004 +00000-0 -16524-4 0  9996
2 15100 082.5293 293.0284 0012897 133.0897 227.1345 13.84438117763712
0 SL-12 R/B(2)
1 15139U 84028F   19153.86849597 -.00000146 +00000-0 +00000-0 0  9998
2 15139 012.1936 325.6530 0022778 349.1533 202.8796 01.01427428098371
0 GORIZONT 10
1 15144U 84078A   19153.69995612 +.00000081 +00000-0 +00000-0 0  9997
2 15144 013.3536 335.3072 0004220 339.0713 017.6829 01.00267245128781
0 GORIZONT 10
1 15144U 84078A   19154.70515128  .00000080  00000-0  00000+0 0  9998
2 15144  13.3522 335.2966 0004187 338.9377  20.6698  1.00267642128838
0 HIMAWARI 3 (GMS 3)
1 15152U 84080A   19153.36729553 -.00000288 +00000-0 +00000-0 0  9992
2 15152 014.2154 344.5944 0008744 053.2615 305.1106 00.99837079126963
0 EUTELSAT 1-F2 (ECS 2)
1 15158U 84081A   19153.53491390 +.00000010 +00000-0 +00000-0 0  9995
2 15158 015.1515 353.4425 0006219 129.1684 041.1655 00.98794200091859
0 EUTELSAT 1-F2 (ECS 2)
1 15158U 84081A   19154.03686130  .00000018  00000-0  00000+0 0  9996
2 15158  15.1512 353.4376 0006239 129.4312 219.4316  0.98794180 91901
